{"fetched_at":"2026-03-29T16:36:15Z","count":15609,"tles":[{"name":"STARLINK-6326","line1":"1 56787U 23078W   26087.90153603  .00001002  00000+0  91747-4 0  9997","line2":"2 56787  69.9979 275.9205 0001791 275.6869  84.4086 14.98341547156058","category":"Starlink"}]}